CCSDS_OMM_VERS = 2.0
CREATION_DATE  = 
ORIGINATOR     = 

OBJECT_NAME    = SL-16 R/B
OBJECT_ID      = 1993-016B
CENTER_NAME    = EARTH
REF_FRAME      = TEME
TIME_SYSTEM    = UTC
MEAN_ELEMENT_THEORY = SGP/SGP4

EPOCH          = 2025-12-22T05:55:14.846304
MEAN_MOTION    = 14.15290740
ECCENTRICITY   = .00080277
INCLINATION    = 71.0081
RA_OF_ASC_NODE = 17.8362
ARG_OF_PERICENTER = 78.8470
MEAN_ANOMALY   = 281.3555

EPHEMERIS_TYPE = 0
CLASSIFICATION_TYPE = U
NORAD_CAT_ID   = 22566
ELEMENT_SET_NO = 999
REV_AT_EPOCH   = 69121
BSTAR          = .19507853E-3
MEAN_MOTION_DOT = .332E-5
MEAN_MOTION_DDOT = 0

CCSDS_OMM_VERS = 2.0
CREATION_DATE  = 
ORIGINATOR     = 

OBJECT_NAME    = COSMOS 2242
OBJECT_ID      = 1993-024A
CENTER_NAME    = EARTH
REF_FRAME      = TEME
TIME_SYSTEM    = UTC
MEAN_ELEMENT_THEORY = SGP/SGP4

EPOCH          = 2025-12-21T11:08:16.434240
MEAN_MOTION    = 14.96138900
ECCENTRICITY   = .00155371
INCLINATION    = 82.5186
RA_OF_ASC_NODE = 341.5053
ARG_OF_PERICENTER = 202.8193
MEAN_ANOMALY   = 157.2340

EPHEMERIS_TYPE = 0
CLASSIFICATION_TYPE = U
NORAD_CAT_ID   = 22626
ELEMENT_SET_NO = 999
REV_AT_EPOCH   = 76869
BSTAR          = .14438942E-3
MEAN_MOTION_DOT = .1654E-4
MEAN_MOTION_DDOT = 0

CCSDS_OMM_VERS = 2.0
CREATION_DATE  = 
ORIGINATOR     = 

OBJECT_NAME    = SL-16 R/B
OBJECT_ID      = 1993-059B
CENTER_NAME    = EARTH
REF_FRAME      = TEME
TIME_SYSTEM    = UTC
MEAN_ELEMENT_THEORY = SGP/SGP4

EPOCH          = 2025-12-22T04:33:46.049184
MEAN_MOTION    = 14.17214102
ECCENTRICITY   = .0018439
INCLINATION    = 70.9879
RA_OF_ASC_NODE = 174.5575
ARG_OF_PERICENTER = 322.3202
MEAN_ANOMALY   = 37.6629

EPHEMERIS_TYPE = 0
CLASSIFICATION_TYPE = U
NORAD_CAT_ID   = 22803
ELEMENT_SET_NO = 999
REV_AT_EPOCH   = 66855
BSTAR          = .126476E-3
MEAN_MOTION_DOT = .208E-5
MEAN_MOTION_DDOT = 0

CCSDS_OMM_VERS = 2.0
CREATION_DATE  = 
ORIGINATOR     = 

OBJECT_NAME    = ARIANE 40 R/B
OBJECT_ID      = 1993-061H
CENTER_NAME    = EARTH
REF_FRAME      = TEME
TIME_SYSTEM    = UTC
MEAN_ELEMENT_THEORY = SGP/SGP4

EPOCH          = 2025-12-22T04:27:01.298880
MEAN_MOTION    = 14.32807368
ECCENTRICITY   = .00113898
INCLINATION    = 98.5064
RA_OF_ASC_NODE = 61.5431
ARG_OF_PERICENTER = 149.1208
MEAN_ANOMALY   = 211.0648

EPHEMERIS_TYPE = 0
CLASSIFICATION_TYPE = U
NORAD_CAT_ID   = 22830
ELEMENT_SET_NO = 999
REV_AT_EPOCH   = 68300
BSTAR          = .1009752E-3
MEAN_MOTION_DOT = .232E-5
MEAN_MOTION_DDOT = 0

CCSDS_OMM_VERS = 2.0
CREATION_DATE  = 
ORIGINATOR     = 

OBJECT_NAME    = COSMOS 2278
OBJECT_ID      = 1994-023A
CENTER_NAME    = EARTH
REF_FRAME      = TEME
TIME_SYSTEM    = UTC
MEAN_ELEMENT_THEORY = SGP/SGP4

EPOCH          = 2025-12-22T05:24:21.193920
MEAN_MOTION    = 14.14348175
ECCENTRICITY   = .00078931
INCLINATION    = 71.0534
RA_OF_ASC_NODE = 337.1651
ARG_OF_PERICENTER = 162.8471
MEAN_ANOMALY   = 197.2920

EPHEMERIS_TYPE = 0
CLASSIFICATION_TYPE = U
NORAD_CAT_ID   = 23087
ELEMENT_SET_NO = 999
REV_AT_EPOCH   = 63385
BSTAR          = -.16204314E-4
MEAN_MOTION_DOT = -.78E-6
MEAN_MOTION_DDOT = 0

CCSDS_OMM_VERS = 2.0
CREATION_DATE  = 
ORIGINATOR     = 

OBJECT_NAME    = SL-16 R/B
OBJECT_ID      = 1994-023B
CENTER_NAME    = EARTH
REF_FRAME      = TEME
TIME_SYSTEM    = UTC
MEAN_ELEMENT_THEORY = SGP/SGP4

EPOCH          = 2025-12-22T02:16:39.204480
MEAN_MOTION    = 14.15000892
ECCENTRICITY   = .00019143
INCLINATION    = 70.9986
RA_OF_ASC_NODE = 233.8403
ARG_OF_PERICENTER = 6.5850
MEAN_ANOMALY   = 353.5297

EPHEMERIS_TYPE = 0
CLASSIFICATION_TYPE = U
NORAD_CAT_ID   = 23088
ELEMENT_SET_NO = 999
REV_AT_EPOCH   = 63511
BSTAR          = -.96604444E-4
MEAN_MOTION_DOT = -.235E-5
MEAN_MOTION_DDOT = 0

CCSDS_OMM_VERS = 2.0
CREATION_DATE  = 
ORIGINATOR     = 

OBJECT_NAME    = SL-16 R/B
OBJECT_ID      = 1994-074B
CENTER_NAME    = EARTH
REF_FRAME      = TEME
TIME_SYSTEM    = UTC
MEAN_ELEMENT_THEORY = SGP/SGP4

EPOCH          = 2025-12-22T01:40:17.468832
MEAN_MOTION    = 14.79299877
ECCENTRICITY   = .00079874
INCLINATION    = 97.7191
RA_OF_ASC_NODE = 25.0030
ARG_OF_PERICENTER = 110.2183
MEAN_ANOMALY   = 271.9520

EPHEMERIS_TYPE = 0
CLASSIFICATION_TYPE = U
NORAD_CAT_ID   = 23343
ELEMENT_SET_NO = 999
REV_AT_EPOCH   = 67577
BSTAR          = .66551261E-4
MEAN_MOTION_DOT = .446E-5
MEAN_MOTION_DDOT = 0

CCSDS_OMM_VERS = 2.0
CREATION_DATE  = 
ORIGINATOR     = 

OBJECT_NAME    = SL-16 R/B
OBJECT_ID      = 1994-077B
CENTER_NAME    = EARTH
REF_FRAME      = TEME
TIME_SYSTEM    = UTC
MEAN_ELEMENT_THEORY = SGP/SGP4

EPOCH          = 2025-12-21T18:04:58.954368
MEAN_MOTION    = 14.15552875
ECCENTRICITY   = .00049797
INCLINATION    = 70.9820
RA_OF_ASC_NODE = 156.4511
ARG_OF_PERICENTER = 278.1293
MEAN_ANOMALY   = 81.9265

EPHEMERIS_TYPE = 0
CLASSIFICATION_TYPE = U
NORAD_CAT_ID   = 23405
ELEMENT_SET_NO = 999
REV_AT_EPOCH   = 60520
BSTAR          = -.22339174E-4
MEAN_MOTION_DOT = -.92E-6
MEAN_MOTION_DDOT = 0

CCSDS_OMM_VERS = 2.0
CREATION_DATE  = 
ORIGINATOR     = 

OBJECT_NAME    = ARIANE 40+ R/B
OBJECT_ID      = 1995-021B
CENTER_NAME    = EARTH
REF_FRAME      = TEME
TIME_SYSTEM    = UTC
MEAN_ELEMENT_THEORY = SGP/SGP4

EPOCH          = 2025-12-22T02:51:02.829600
MEAN_MOTION    = 14.39702300
ECCENTRICITY   = .00070068
INCLINATION    = 98.4639
RA_OF_ASC_NODE = 63.5942
ARG_OF_PERICENTER = 23.9391
MEAN_ANOMALY   = 36.2539

EPHEMERIS_TYPE = 0
CLASSIFICATION_TYPE = U
NORAD_CAT_ID   = 23561
ELEMENT_SET_NO = 999
REV_AT_EPOCH   = 60808
BSTAR          = .10857881E-3
MEAN_MOTION_DOT = .296E-5
MEAN_MOTION_DDOT = 0

CCSDS_OMM_VERS = 2.0
CREATION_DATE  = 
ORIGINATOR     = 

OBJECT_NAME    = SL-16 R/B
OBJECT_ID      = 1995-058B
CENTER_NAME    = EARTH
REF_FRAME      = TEME
TIME_SYSTEM    = UTC
MEAN_ELEMENT_THEORY = SGP/SGP4

EPOCH          = 2025-12-22T06:01:50.025216
MEAN_MOTION    = 14.15482264
ECCENTRICITY   = .00148017
INCLINATION    = 71.0219
RA_OF_ASC_NODE = 342.8349
ARG_OF_PERICENTER = 242.8650
MEAN_ANOMALY   = 117.0964

EPHEMERIS_TYPE = 0
CLASSIFICATION_TYPE = U
NORAD_CAT_ID   = 23705
ELEMENT_SET_NO = 999
REV_AT_EPOCH   = 55689
BSTAR          = -.10058664E-3
MEAN_MOTION_DOT = -.244E-5
MEAN_MOTION_DDOT = 0

CCSDS_OMM_VERS = 2.0
CREATION_DATE  = 
ORIGINATOR     = 

OBJECT_NAME    = SL-16 R/B
OBJECT_ID      = 1996-051B
CENTER_NAME    = EARTH
REF_FRAME      = TEME
TIME_SYSTEM    = UTC
MEAN_ELEMENT_THEORY = SGP/SGP4

EPOCH          = 2025-12-22T06:17:23.079552
MEAN_MOTION    = 14.12397350
ECCENTRICITY   = .00194888
INCLINATION    = 70.7595
RA_OF_ASC_NODE = 339.1276
ARG_OF_PERICENTER = 249.6694
MEAN_ANOMALY   = 110.2332

EPHEMERIS_TYPE = 0
CLASSIFICATION_TYPE = U
NORAD_CAT_ID   = 24298
ELEMENT_SET_NO = 999
REV_AT_EPOCH   = 51071
BSTAR          = .416334E-5
MEAN_MOTION_DOT = -.42E-6
MEAN_MOTION_DDOT = 0

CCSDS_OMM_VERS = 2.0
CREATION_DATE  = 
ORIGINATOR     = 

OBJECT_NAME    = ORBVIEW 2 (SEASTAR)
OBJECT_ID      = 1997-037A
CENTER_NAME    = EARTH
REF_FRAME      = TEME
TIME_SYSTEM    = UTC
MEAN_ELEMENT_THEORY = SGP/SGP4

EPOCH          = 2025-12-22T06:08:26.536416
MEAN_MOTION    = 14.35423579
ECCENTRICITY   = .00013073
INCLINATION    = 98.8461
RA_OF_ASC_NODE = 153.5701
ARG_OF_PERICENTER = 301.6723
MEAN_ANOMALY   = 58.4334

EPHEMERIS_TYPE = 0
CLASSIFICATION_TYPE = U
NORAD_CAT_ID   = 24883
ELEMENT_SET_NO = 999
REV_AT_EPOCH   = 49736
BSTAR          = .10771355E-3
MEAN_MOTION_DOT = .263E-5
MEAN_MOTION_DDOT = 0

