SL-16 R/B               
1 22566U 93016B   25356.24669961  .00000332  00000+0  19508-3 0  9997
2 22566  71.0081  17.8362 0008027  78.8470 281.3555 14.15290740691219
COSMOS 2242             
1 22626U 93024A   25355.46407910  .00001654  00000+0  14439-3 0  9996
2 22626  82.5186 341.5053 0015537 202.8193 157.2340 14.96138900768696
SL-16 R/B               
1 22803U 93059B   25356.19011631  .00000208  00000+0  12648-3 0  9997
2 22803  70.9879 174.5575 0018439 322.3202  37.6629 14.17214102668556
ARIANE 40 R/B           
1 22830U 93061H   25356.18543170  .00000232  00000+0  10098-3 0  9991
2 22830  98.5064  61.5431 0011389 149.1208 211.0648 14.32807368683007
COSMOS 2278             
1 23087U 94023A   25356.22524530 -.00000078  00000+0 -16204-4 0  9995
2 23087  71.0534 337.1651 0007893 162.8471 197.2920 14.14348175633857
SL-16 R/B               
1 23088U 94023B   25356.09489820 -.00000235  00000+0 -96604-4 0  9990
2 23088  70.9986 233.8403 0001914   6.5850 353.5297 14.15000892635114
SL-16 R/B               
1 23343U 94074B   25356.06964663  .00000446  00000+0  66551-4 0  9990
2 23343  97.7191  25.0030 0007987 110.2183 271.9520 14.79299877675779
SL-16 R/B               
1 23405U 94077B   25355.75346012 -.00000092  00000+0 -22339-4 0  9994
2 23405  70.9820 156.4511 0004979 278.1293  81.9265 14.15552875605203
ARIANE 40+ R/B          
1 23561U 95021B   25356.11878275  .00000296  00000+0  10858-3 0  9995
2 23561  98.4639  63.5942 0007006  23.9391  36.2539 14.39702300608086
SL-16 R/B               
1 23705U 95058B   25356.25127344 -.00000244  00000+0 -10059-3 0  9992
2 23705  71.0219 342.8349 0014801 242.8650 117.0964 14.15482264556891
SL-16 R/B               
1 24298U 96051B   25356.26207268 -.00000042  00000+0  41633-5 0  9998
2 24298  70.7595 339.1276 0019488 249.6694 110.2332 14.12397350510712
ORBVIEW 2 (SEASTAR)     
1 24883U 97037A   25356.25586269  .00000263  00000+0  10771-3 0  9994
2 24883  98.8461 153.5701 0001307 301.6723  58.4334 14.35423579497367
